{
  "norad_id": 67930,
  "name": "STARLINK-36865",
  "history": [
    {
      "epoch": "2026-04-14T12:13:37.432128Z",
      "apogee_km": 483.94812564660606,
      "perigee_km": 482.1359510389984,
      "latitude_deg": -4.667348214990401e-06,
      "longitude_deg": 16.569767237762857,
      "height_km": 482.91024591465094,
      "semi_major_axis_km": 6861.1790383428015,
      "eccentricity": 0.00013206,
      "inclination_deg": 43.0006,
      "raan_deg": 42.6606,
      "arg_perigee_deg": 264.2027,
      "mean_anomaly_deg": 95.8674,
      "mean_motion_rev_day": 15.27582357
    },
    {
      "epoch": "2026-04-15T03:55:11.212608Z",
      "apogee_km": 483.92278909869947,
      "perigee_km": 482.14698059146303,
      "latitude_deg": 3.7830394553397355e-05,
      "longitude_deg": 136.84288464494477,
      "height_km": 482.84576876402906,
      "semi_major_axis_km": 6861.171884845081,
      "eccentricity": 0.00012941,
      "inclination_deg": 43.0018,
      "raan_deg": 38.9689,
      "arg_perigee_deg": 267.8003,
      "mean_anomaly_deg": 92.2701,
      "mean_motion_rev_day": 15.27584746
    },
    {
      "epoch": "2026-04-16T03:27:32.228064Z",
      "apogee_km": 483.8539668370986,
      "perigee_km": 482.2827508099281,
      "latitude_deg": -3.356432233468776e-05,
      "longitude_deg": 137.24962665706562,
      "height_km": 482.81422909960526,
      "semi_major_axis_km": 6861.205358823513,
      "eccentricity": 0.0001145,
      "inclination_deg": 43.0006,
      "raan_deg": 33.43,
      "arg_perigee_deg": 272.2389,
      "mean_anomaly_deg": 87.8331,
      "mean_motion_rev_day": 15.27573567
    },
    {
      "epoch": "2026-04-17T02:59:52.611072Z",
      "apogee_km": 483.99698529541274,
      "perigee_km": 482.00684334192465,
      "latitude_deg": 3.830325499429502e-05,
      "longitude_deg": 137.65956367547025,
      "height_km": 482.7947555493075,
      "semi_major_axis_km": 6861.138914318668,
      "eccentricity": 0.00014503,
      "inclination_deg": 43.0005,
      "raan_deg": 27.8915,
      "arg_perigee_deg": 269.0758,
      "mean_anomaly_deg": 90.9928,
      "mean_motion_rev_day": 15.27595757
    },
    {
      "epoch": "2026-04-18T02:32:13.333632Z",
      "apogee_km": 483.9709927583781,
      "perigee_km": 482.0401300187523,
      "latitude_deg": 3.131715339037651e-05,
      "longitude_deg": 138.06739717836604,
      "height_km": 482.82676520390817,
      "semi_major_axis_km": 6861.142561388565,
      "eccentricity": 0.00014071,
      "inclination_deg": 43.0003,
      "raan_deg": 22.3524,
      "arg_perigee_deg": 267.3596,
      "mean_anomaly_deg": 92.7095,
      "mean_motion_rev_day": 15.27594539
    },
    {
      "epoch": "2026-04-19T02:04:33.635424Z",
      "apogee_km": 483.96114810148174,
      "perigee_km": 481.9974966100235,
      "latitude_deg": -2.6532066999729203e-05,
      "longitude_deg": 138.47773331296466,
      "height_km": 482.8473909062546,
      "semi_major_axis_km": 6861.116322355752,
      "eccentricity": 0.0001431,
      "inclination_deg": 43.0024,
      "raan_deg": 16.8141,
      "arg_perigee_deg": 264.6766,
      "mean_anomaly_deg": 95.3922,
      "mean_motion_rev_day": 15.27603302
    },
    {
      "epoch": "2026-04-20T00:02:45.962304Z",
      "apogee_km": 483.43824748072984,
      "perigee_km": 482.6269827854376,
      "latitude_deg": 7.309731857836615e-06,
      "longitude_deg": 162.85512668017324,
      "height_km": 482.79087251373113,
      "semi_major_axis_km": 6861.169615133083,
      "eccentricity": 5.912e-05,
      "inclination_deg": 42.9989,
      "raan_deg": 11.6451,
      "arg_perigee_deg": 272.4879,
      "mean_anomaly_deg": 87.5905,
      "mean_motion_rev_day": 15.27585504
    },
    {
      "epoch": "2026-04-20T23:35:07.275840Z",
      "apogee_km": 483.9840232185443,
      "perigee_km": 482.0349087304894,
      "latitude_deg": 6.1945550964926485e-06,
      "longitude_deg": 163.26169411993516,
      "height_km": 482.67644273122335,
      "semi_major_axis_km": 6861.146465974516,
      "eccentricity": 0.00014204,
      "inclination_deg": 43.0034,
      "raan_deg": 6.1072,
      "arg_perigee_deg": 276.4884,
      "mean_anomaly_deg": 83.5806,
      "mean_motion_rev_day": 15.27593235
    },
    {
      "epoch": "2026-04-22T02:15:45.923328Z",
      "apogee_km": 484.0683725848194,
      "perigee_km": 481.83673459661895,
      "latitude_deg": 3.1163157715538254e-05,
      "longitude_deg": 115.72758468626395,
      "height_km": 482.67059462784374,
      "semi_major_axis_km": 6861.089553590719,
      "eccentricity": 0.00016263,
      "inclination_deg": 43.003,
      "raan_deg": 359.8297,
      "arg_perigee_deg": 273.0402,
      "mean_anomaly_deg": 87.0264,
      "mean_motion_rev_day": 15.27612242
    },
    {
      "epoch": "2026-04-23T23:46:18.094944Z",
      "apogee_km": 484.4835422832448,
      "perigee_km": 481.4105999494732,
      "latitude_deg": -8.374227909359548e-07,
      "longitude_deg": 140.5124125895724,
      "height_km": 483.1476947957631,
      "semi_major_axis_km": 6861.084071116359,
      "eccentricity": 0.00022394,
      "inclination_deg": 43.0006,
      "raan_deg": 349.1176,
      "arg_perigee_deg": 254.0068,
      "mean_anomaly_deg": 106.0537,
      "mean_motion_rev_day": 15.27614073
    },
    {
      "epoch": "2026-04-25T15:00:13.106016Z",
      "apogee_km": 484.1963222218046,
      "perigee_km": 481.874501477635,
      "latitude_deg": -1.1589964484776763e-05,
      "longitude_deg": -98.80631146370722,
      "height_km": 482.88544496125536,
      "semi_major_axis_km": 6861.1724118497195,
      "eccentricity": 0.0001692,
      "inclination_deg": 43.0042,
      "raan_deg": 339.8893,
      "arg_perigee_deg": 266.4126,
      "mean_anomaly_deg": 93.6532,
      "mean_motion_rev_day": 15.2758457
    },
    {
      "epoch": "2026-04-26T16:06:43.458912Z",
      "apogee_km": 484.28731442451226,
      "perigee_km": 481.6914758641724,
      "latitude_deg": 3.523450079641504e-05,
      "longitude_deg": -122.3716982171606,
      "height_km": 482.56432759804306,
      "semi_major_axis_km": 6861.126395144342,
      "eccentricity": 0.00018917,
      "inclination_deg": 43.0026,
      "raan_deg": 333.9815,
      "arg_perigee_deg": 278.9739,
      "mean_anomaly_deg": 81.0899,
      "mean_motion_rev_day": 15.27599938
    },
    {
      "epoch": "2026-04-27T20:21:32.569632Z",
      "apogee_km": 483.81596558458205,
      "perigee_km": 482.1528297577861,
      "latitude_deg": -3.150624961733576e-05,
      "longitude_deg": 166.11254143862934,
      "height_km": 483.54184186620654,
      "semi_major_axis_km": 6861.121397671184,
      "eccentricity": 0.0001212,
      "inclination_deg": 42.9986,
      "raan_deg": 327.3305,
      "arg_perigee_deg": 199.9044,
      "mean_anomaly_deg": 160.176,
      "mean_motion_rev_day": 15.27601607
    },
    {
      "epoch": "2026-04-28T19:53:53.421792Z",
      "apogee_km": 484.362561551352,
      "perigee_km": 481.6729888794671,
      "latitude_deg": -4.571783960751563e-06,
      "longitude_deg": 166.5264693396401,
      "height_km": 482.78248032774815,
      "semi_major_axis_km": 6861.154775215409,
      "eccentricity": 0.000196,
      "inclination_deg": 43.0037,
      "raan_deg": 321.798,
      "arg_perigee_deg": 270.5476,
      "mean_anomaly_deg": 89.5151,
      "mean_motion_rev_day": 15.2759046
    },
    {
      "epoch": "2026-04-29T14:43:46.099200Z",
      "apogee_km": 484.18268428079955,
      "perigee_km": 481.8169643037836,
      "latitude_deg": 1.691643096188732e-05,
      "longitude_deg": -121.15197064878247,
      "height_km": 483.00320336655034,
      "semi_major_axis_km": 6861.136824292291,
      "eccentricity": 0.0001724,
      "inclination_deg": 43.0008,
      "raan_deg": 317.3624,
      "arg_perigee_deg": 258.9661,
      "mean_anomaly_deg": 101.0997,
      "mean_motion_rev_day": 15.27596455
    },
    {
      "epoch": "2026-04-30T12:41:57.454944Z",
      "apogee_km": 484.24122536281993,
      "perigee_km": 481.7542012519398,
      "latitude_deg": 2.724872963448261e-05,
      "longitude_deg": -96.76844387225854,
      "height_km": 482.87002252372895,
      "semi_major_axis_km": 6861.13471330738,
      "eccentricity": 0.00018124,
      "inclination_deg": 43.004,
      "raan_deg": 312.1955,
      "arg_perigee_deg": 265.6253,
      "mean_anomaly_deg": 94.4392,
      "mean_motion_rev_day": 15.2759716
    }
  ]
}